[
    {
        "CCSDS_OMM_VERS": "3.0",
        "COMMENT": "GENERATED VIA SPACE-TRACK.ORG API",
        "CREATION_DATE": "2025-05-04T02:26:54",
        "ORIGINATOR": "18 SPCS",
        "OBJECT_NAME": "COSMOS 2477 (GLONASS)",
        "OBJECT_ID": "2011-064B",
        "CENTER_NAME": "EARTH",
        "REF_FRAME": "TEME",
        "TIME_SYSTEM": "UTC",
        "MEAN_ELEMENT_THEORY": "SGP4",
        "EPOCH": "2025-05-03T19:44:10.024800",
        "MEAN_MOTION": "2.13102998",
        "ECCENTRICITY": "0.00210580",
        "INCLINATION": "65.0492",
        "RA_OF_ASC_NODE": "86.7911",
        "ARG_OF_PERICENTER": "243.6604",
        "MEAN_ANOMALY": "330.0050",
        "EPHEMERIS_TYPE": "0",
        "CLASSIFICATION_TYPE": "U",
        "NORAD_CAT_ID": "37868",
        "ELEMENT_SET_NO": "999",
        "REV_AT_EPOCH": "10503",
        "BSTAR": "0.00000000000000",
        "MEAN_MOTION_DOT": "0.00000028",
        "MEAN_MOTION_DDOT": "0.0000000000000",
        "SEMIMAJOR_AXIS": "25507.945",
        "PERIOD": "675.730",
        "APOAPSIS": "19183.524",
        "PERIAPSIS": "19076.095",
        "OBJECT_TYPE": "PAYLOAD",
        "RCS_SIZE": "LARGE",
        "COUNTRY_CODE": "CIS",
        "LAUNCH_DATE": "2011-11-04",
        "SITE": "TTMTR",
        "DECAY_DATE": null,
        "FILE": "4718307",
        "GP_ID": "286796447",
        "TLE_LINE0": "0 COSMOS 2477 (GLONASS)",
        "TLE_LINE1": "1 37868U 11064B   25123.82233825  .00000028  00000-0  00000-0 0  9990",
        "TLE_LINE2": "2 37868  65.0492  86.7911 0021058 243.6604 330.0050  2.13102998105038"
    }
]